[{"OBJECT_NAME":"STARLINK-11703 [DTC]","OBJECT_ID":"2025-089J","EPOCH":"2026-03-05T09:48:09.701568","MEAN_MOTION":15.70888842,"ECCENTRICITY":0.0001766,"INCLINATION":43.0002,"RA_OF_ASC_NODE":317.9169,"ARG_OF_PERICENTER":283.3164,"MEAN_ANOMALY":76.7507,"EPHEMERIS_TYPE":0,"CLASSIFICATION_TYPE":"U","NORAD_CAT_ID":63759,"ELEMENT_SET_NO":999,"REV_AT_EPOCH":4946,"BSTAR":0.0016687,"MEAN_MOTION_DOT":0.00219882,"MEAN_MOTION_DDOT":0},{"OBJECT_NAME":"STARLINK-11701 [DTC]","OBJECT_ID":"2025-089K","EPOCH":"2026-03-05T03:18:58.908384","MEAN_MOTION":15.70835792,"ECCENTRICITY":0.00016971,"INCLINATION":42.9995,"RA_OF_ASC_NODE":319.3207,"ARG_OF_PERICENTER":275.6343,"MEAN_ANOMALY":84.4331,"EPHEMERIS_TYPE":0,"CLASSIFICATION_TYPE":"U","NORAD_CAT_ID":63760,"ELEMENT_SET_NO":999,"REV_AT_EPOCH":4942,"BSTAR":0.0014190251,"MEAN_MOTION_DOT":0.00185725,"MEAN_MOTION_DDOT":0},{"OBJECT_NAME":"STARLINK-11660 [DTC]","OBJECT_ID":"2025-089L","EPOCH":"2026-03-05T09:40:32.211840","MEAN_MOTION":15.70897265,"ECCENTRICITY":0.0001185,"INCLINATION":42.9973,"RA_OF_ASC_NODE":317.8746,"ARG_OF_PERICENTER":10.519,"MEAN_ANOMALY":349.5703,"EPHEMERIS_TYPE":0,"CLASSIFICATION_TYPE":"U","NORAD_CAT_ID":63761,"ELEMENT_SET_NO":999,"REV_AT_EPOCH":4941,"BSTAR":0.0026708,"MEAN_MOTION_DOT":0.00358317,"MEAN_MOTION_DDOT":0},{"OBJECT_NAME":"STARLINK-11699 [DTC]","OBJECT_ID":"2025-089M","EPOCH":"2026-03-05T01:32:19.463424","MEAN_MOTION":15.70860272,"ECCENTRICITY":0.00019505,"INCLINATION":43.0002,"RA_OF_ASC_NODE":320.5147,"ARG_OF_PERICENTER":276.2843,"MEAN_ANOMALY":83.7803,"EPHEMERIS_TYPE":0,"CLASSIFICATION_TYPE":"U","NORAD_CAT_ID":63762,"ELEMENT_SET_NO":999,"REV_AT_EPOCH":4940,"BSTAR":0.0013167163,"MEAN_MOTION_DOT":0.00172198,"MEAN_MOTION_DDOT":0},{"OBJECT_NAME":"STARLINK-11693 [DTC]","OBJECT_ID":"2025-089N","EPOCH":"2026-03-05T02:11:40.094592","MEAN_MOTION":15.70849007,"ECCENTRICITY":0.0002946,"INCLINATION":43.0009,"RA_OF_ASC_NODE":319.8386,"ARG_OF_PERICENTER":268.2754,"MEAN_ANOMALY":91.7777,"EPHEMERIS_TYPE":0,"CLASSIFICATION_TYPE":"U","NORAD_CAT_ID":63763,"ELEMENT_SET_NO":999,"REV_AT_EPOCH":4930,"BSTAR":0.0021198008,"MEAN_MOTION_DOT":0.00281072,"MEAN_MOTION_DDOT":0},{"OBJECT_NAME":"STARLINK-33760","OBJECT_ID":"2025-089P","EPOCH":"2026-03-05T10:09:13.095936","MEAN_MOTION":15.27559533,"ECCENTRICITY":7.16e-5,"INCLINATION":43.0007,"RA_OF_ASC_NODE":69.4467,"ARG_OF_PERICENTER":311.8693,"MEAN_ANOMALY":48.2098,"EPHEMERIS_TYPE":0,"CLASSIFICATION_TYPE":"U","NORAD_CAT_ID":63764,"ELEMENT_SET_NO":999,"REV_AT_EPOCH":4830,"BSTAR":-0.00016411,"MEAN_MOTION_DOT":-4.772e-5,"MEAN_MOTION_DDOT":0},{"OBJECT_NAME":"STARLINK-33941","OBJECT_ID":"2025-089Q","EPOCH":"2026-03-05T10:12:55.423872","MEAN_MOTION":15.27581554,"ECCENTRICITY":0.0001403,"INCLINATION":43.0012,"RA_OF_ASC_NODE":69.4681,"ARG_OF_PERICENTER":295.191,"MEAN_ANOMALY":64.8796,"EPHEMERIS_TYPE":0,"CLASSIFICATION_TYPE":"U","NORAD_CAT_ID":63765,"ELEMENT_SET_NO":999,"REV_AT_EPOCH":4829,"BSTAR":0.0014016,"MEAN_MOTION_DOT":0.0003851,"MEAN_MOTION_DDOT":0},{"OBJECT_NAME":"STARLINK-33824","OBJECT_ID":"2025-089R","EPOCH":"2026-03-05T09:02:50.059392","MEAN_MOTION":15.27577187,"ECCENTRICITY":0.0001622,"INCLINATION":43.0013,"RA_OF_ASC_NODE":69.9666,"ARG_OF_PERICENTER":259.8061,"MEAN_ANOMALY":100.2608,"EPHEMERIS_TYPE":0,"CLASSIFICATION_TYPE":"U","NORAD_CAT_ID":63766,"ELEMENT_SET_NO":999,"REV_AT_EPOCH":4829,"BSTAR":0.0013649,"MEAN_MOTION_DOT":0.00037486,"MEAN_MOTION_DDOT":0},{"OBJECT_NAME":"STARLINK-33808","OBJECT_ID":"2025-089S","EPOCH":"2026-03-05T09:56:16.504224","MEAN_MOTION":15.27593007,"ECCENTRICITY":0.0002463,"INCLINATION":43.0052,"RA_OF_ASC_NODE":69.3759,"ARG_OF_PERICENTER":257.4525,"MEAN_ANOMALY":102.6052,"EPHEMERIS_TYPE":0,"CLASSIFICATION_TYPE":"U","NORAD_CAT_ID":63767,"ELEMENT_SET_NO":999,"REV_AT_EPOCH":4830,"BSTAR":0.00090623,"MEAN_MOTION_DOT":0.0002477,"MEAN_MOTION_DDOT":0},{"OBJECT_NAME":"STARLINK-33844","OBJECT_ID":"2025-089T","EPOCH":"2026-03-05T09:28:31.304064","MEAN_MOTION":15.27592566,"ECCENTRICITY":0.0001973,"INCLINATION":43.0045,"RA_OF_ASC_NODE":69.2352,"ARG_OF_PERICENTER":269.3598,"MEAN_ANOMALY":90.7027,"EPHEMERIS_TYPE":0,"CLASSIFICATION_TYPE":"U","NORAD_CAT_ID":63768,"ELEMENT_SET_NO":999,"REV_AT_EPOCH":4830,"BSTAR":0.0011166,"MEAN_MOTION_DOT":0.00030603,"MEAN_MOTION_DDOT":0},{"OBJECT_NAME":"STARLINK-33907","OBJECT_ID":"2025-089U","EPOCH":"2026-03-05T10:03:41.770080","MEAN_MOTION":15.2757519,"ECCENTRICITY":0.0001207,"INCLINATION":43.0061,"RA_OF_ASC_NODE":69.4169,"ARG_OF_PERICENTER":266.6421,"MEAN_ANOMALY":93.4292,"EPHEMERIS_TYPE":0,"CLASSIFICATION_TYPE":"U","NORAD_CAT_ID":63769,"ELEMENT_SET_NO":999,"REV_AT_EPOCH":4825,"BSTAR":0.0011102,"MEAN_MOTION_DOT":0.00030409,"MEAN_MOTION_DDOT":0},{"OBJECT_NAME":"STARLINK-33884","OBJECT_ID":"2025-089V","EPOCH":"2026-03-05T23:37:47.210880","MEAN_MOTION":15.27604806,"ECCENTRICITY":0.00045615,"INCLINATION":43.0044,"RA_OF_ASC_NODE":65.9202,"ARG_OF_PERICENTER":294.0937,"MEAN_ANOMALY":65.9437,"EPHEMERIS_TYPE":0,"CLASSIFICATION_TYPE":"U","NORAD_CAT_ID":63770,"ELEMENT_SET_NO":999,"REV_AT_EPOCH":4834,"BSTAR":0.0012083947,"MEAN_MOTION_DOT":0.00033172,"MEAN_MOTION_DDOT":0},{"OBJECT_NAME":"STARLINK-33841","OBJECT_ID":"2025-089W","EPOCH":"2026-03-05T09:41:28.449600","MEAN_MOTION":15.27594121,"ECCENTRICITY":0.0001958,"INCLINATION":43.0034,"RA_OF_ASC_NODE":69.2986,"ARG_OF_PERICENTER":247.1172,"MEAN_ANOMALY":112.9473,"EPHEMERIS_TYPE":0,"CLASSIFICATION_TYPE":"U","NORAD_CAT_ID":63771,"ELEMENT_SET_NO":999,"REV_AT_EPOCH":4825,"BSTAR":0.00095293,"MEAN_MOTION_DOT":0.00026065,"MEAN_MOTION_DDOT":0},{"OBJECT_NAME":"STARLINK-33769","OBJECT_ID":"2025-089X","EPOCH":"2026-03-05T09:26:40.352640","MEAN_MOTION":15.27590179,"ECCENTRICITY":0.000235,"INCLINATION":43.009,"RA_OF_ASC_NODE":69.2249,"ARG_OF_PERICENTER":283.8034,"MEAN_ANOMALY":76.2557,"EPHEMERIS_TYPE":0,"CLASSIFICATION_TYPE":"U","NORAD_CAT_ID":63773,"ELEMENT_SET_NO":999,"REV_AT_EPOCH":4829,"BSTAR":0.00094241,"MEAN_MOTION_DOT":0.0002577,"MEAN_MOTION_DDOT":0},{"OBJECT_NAME":"STARLINK-33914","OBJECT_ID":"2025-089Y","EPOCH":"2026-03-05T23:16:16.454496","MEAN_MOTION":15.27586179,"ECCENTRICITY":0.00011875,"INCLINATION":43.001,"RA_OF_ASC_NODE":62.304,"ARG_OF_PERICENTER":256.1356,"MEAN_ANOMALY":103.9364,"EPHEMERIS_TYPE":0,"CLASSIFICATION_TYPE":"U","NORAD_CAT_ID":63774,"ELEMENT_SET_NO":999,"REV_AT_EPOCH":4843,"BSTAR":0.00084813396,"MEAN_MOTION_DOT":0.00023154,"MEAN_MOTION_DDOT":0},{"OBJECT_NAME":"STARLINK-33932","OBJECT_ID":"2025-091A","EPOCH":"2026-03-05T08:55:51.914496","MEAN_MOTION":15.27579624,"ECCENTRICITY":0.0001587,"INCLINATION":43.001,"RA_OF_ASC_NODE":76.754,"ARG_OF_PERICENTER":273.6011,"MEAN_ANOMALY":86.4659,"EPHEMERIS_TYPE":0,"CLASSIFICATION_TYPE":"U","NORAD_CAT_ID":63775,"ELEMENT_SET_NO":999,"REV_AT_EPOCH":4828,"BSTAR":0.0010361,"MEAN_MOTION_DOT":0.00028358,"MEAN_MOTION_DDOT":0}]
