STARLINK-11703 [DTC]    
1 63759U 25089J   26064.40844562  .00219882  00000+0  16687-2 0  9994
2 63759  43.0002 317.9169 0001766 283.3164  76.7507 15.70888842 49460
STARLINK-11701 [DTC]    
1 63760U 25089K   26064.13818181  .00185725  00000+0  14190-2 0  9999
2 63760  42.9995 319.3207 0001697 275.6343  84.4331 15.70835792 49429
STARLINK-11660 [DTC]    
1 63761U 25089L   26064.40315060  .00358317  00000+0  26708-2 0  9995
2 63761  42.9973 317.8746 0001185  10.5190 349.5703 15.70897265 49415
STARLINK-11699 [DTC]    
1 63762U 25089M   26064.06411416  .00172198  00000+0  13167-2 0  9996
2 63762  43.0002 320.5147 0001950 276.2843  83.7803 15.70860272 49408
STARLINK-11693 [DTC]    
1 63763U 25089N   26064.09143628  .00281072  00000+0  21198-2 0  9992
2 63763  43.0009 319.8386 0002946 268.2754  91.7777 15.70849007 49301
STARLINK-33760          
1 63764U 25089P   26064.42306824 -.00004772  00000+0 -16411-3 0  9994
2 63764  43.0007  69.4467 0000716 311.8693  48.2098 15.27559533 48304
STARLINK-33941          
1 63765U 25089Q   26064.42564148  .00038510  00000+0  14016-2 0  9993
2 63765  43.0012  69.4681 0001403 295.1910  64.8796 15.27581554 48294
STARLINK-33824          
1 63766U 25089R   26064.37696828  .00037486  00000+0  13649-2 0  9991
2 63766  43.0013  69.9666 0001622 259.8061 100.2608 15.27577187 48295
STARLINK-33808          
1 63767U 25089S   26064.41407991  .00024770  00000+0  90623-3 0  9998
2 63767  43.0052  69.3759 0002463 257.4525 102.6052 15.27593007 48309
STARLINK-33844          
1 63768U 25089T   26064.39480676  .00030603  00000+0  11166-2 0  9993
2 63768  43.0045  69.2352 0001973 269.3598  90.7027 15.27592566 48305
STARLINK-33907          
1 63769U 25089U   26064.41923345  .00030409  00000+0  11102-2 0  9996
2 63769  43.0061  69.4169 0001207 266.6421  93.4292 15.27575190 48259
STARLINK-33884          
1 63770U 25089V   26064.98457420  .00033172  00000+0  12084-2 0  9996
2 63770  43.0044  65.9202 0004561 294.0937  65.9437 15.27604806 48346
STARLINK-33841          
1 63771U 25089W   26064.40380150  .00026065  00000+0  95293-3 0  9996
2 63771  43.0034  69.2986 0001958 247.1172 112.9473 15.27594121 48250
STARLINK-33769          
1 63773U 25089X   26064.39352260  .00025770  00000+0  94241-3 0  9991
2 63773  43.0090  69.2249 0002350 283.8034  76.2557 15.27590179 48295
STARLINK-33914          
1 63774U 25089Y   26064.96963489  .00023154  00000+0  84813-3 0  9994
2 63774  43.0010  62.3040 0001187 256.1356 103.9364 15.27586179 48433
STARLINK-33932          
1 63775U 25091A   26064.37212864  .00028358  00000+0  10361-2 0  9994
2 63775  43.0010  76.7540 0001587 273.6011  86.4659 15.27579624 48286
